H1 CPF 01  gfz 2022 11 12 13  8162 terrasarx 
H2 0702601  6201 31698    2022 11 12 12 59 42 2022 11 17 00 00 42   120 1 1  0 0 0
H9
10 0 59896  76302.000000  0    4645376.413  -4693071.516  -1973687.949
10 0 59896  76422.000000  0    4655029.195  -4962304.820  -1092338.129
10 0 59896  76542.000000  0    4579457.821  -5144320.648   -191782.864
10 0 59896  76662.000000  0    4421499.058  -5234417.733    712144.679
10 0 59896  76782.000000  0    4185513.951  -5229577.881   1603534.452
10 0 59896  76902.000000  0    3877281.750  -5128547.349   2466689.325
10 0 59896  77022.000000  0    3503865.295  -4931882.850   3286409.148
10 0 59896  77142.000000  0    3073452.092  -4641961.192   4048265.673
10 0 59896  77262.000000  0    2595174.469  -4262951.164   4738860.995
10 0 59896  77382.000000  0    2078914.218  -3800749.602   5346064.890
10 0 59896  77502.000000  0    1535096.121  -3262883.835   5859226.790
10 0 59896  77622.000000  0     974474.671  -2658381.830   6269359.054
10 0 59896  77742.000000  0     407919.623  -1997614.951   6569288.039
10 0 59896  77862.000000  0    -153795.362  -1292116.208   6753772.681
10 0 59896  77982.000000  0    -700196.497   -554377.019   6819591.243
10 0 59896  78102.000000  0   -1221304.035    202375.242   6765594.111
10 0 59896  78222.000000  0   -1707813.934    964414.066   6592722.410
10 0 59896  78342.000000  0   -2151263.540   1717761.950   6303992.499
10 0 59896  78462.000000  0   -2544179.424   2448445.873   5904446.686
10 0 59896  78582.000000  0   -2880204.503   3142756.903   5401070.771
10 0 59896  78702.000000  0   -3154203.514   3787509.479   4802678.576
10 0 59896  78822.000000  0   -3362344.662   4370296.088   4119763.663
10 0 59896  78942.000000  0   -3502154.841   4879732.184   3364319.617
10 0 59896  79062.000000  0   -3572547.242   5305685.899   2549630.898
10 0 59896  79182.000000  0   -3573820.342   5639486.167   1690037.358
10 0 59896  79302.000000  0   -3507628.036   5874103.622    800678.019
10 0 59896  79422.000000  0   -3376922.556   6004302.682   -102780.954
10 0 59896  79542.000000  0   -3185870.118   6026758.616  -1004431.557
10 0 59896  79662.000000  0   -2939741.870   5940134.865  -1888414.610
10 0 59896  79782.000000  0   -2644780.812   5745118.309  -2739208.874
10 0 59896  79902.000000  0   -2308050.272   5444413.192  -3541907.676
10 0 59896  80022.000000  0   -1937270.305   5042697.151  -4282482.202
10 0 59896  80142.000000  0   -1540643.819   4546537.133  -4948024.805
10 0 59896  80262.000000  0   -1126678.628   3964271.724  -5526967.297
10 0 59896  80382.000000  0    -704008.104   3305862.499  -6009274.470
10 0 59896  80502.000000  0    -281213.788   2582715.533  -6386608.681
10 0 59896  80622.000000  0     133345.397   1807478.536  -6652461.773
10 0 59896  80742.000000  0     531693.513    993819.339  -6802256.786
10 0 59896  80862.000000  0     906386.917    156187.201  -6833418.906
10 0 59896  80982.000000  0    1250649.850   -690439.387  -6745414.657
10 0 59896  81102.000000  0    1558493.414  -1530814.654  -6539758.482
10 0 59896  81222.000000  0    1824817.252  -2349692.361  -6219989.256
10 0 59896  81342.000000  0    2045493.575  -3132095.814  -5791616.934
10 0 59896  81462.000000  0    2217431.509  -3863589.530  -5262038.952
10 0 59896  81582.000000  0    2338620.840  -4530547.239  -4640422.284
10 0 59896  81702.000000  0    2408153.592  -5120407.533  -3937554.795
10 0 59896  81822.000000  0    2426223.412  -5621916.455  -3165668.707
10 0 59896  81942.000000  0    2394102.387  -6025351.640  -2338235.184
10 0 59896  82062.000000  0    2314095.611  -6322721.900  -1469733.380
10 0 59896  82182.000000  0    2189472.918  -6507937.049   -575396.779
10 0 59896  82302.000000  0    2024381.082  -6576940.579    329059.620
10 0 59896  82422.000000  0    1823735.525  -6527802.324   1227721.570
10 0 59896  82542.000000  0    1593097.764  -6360771.218   2104764.371
10 0 59896  82662.000000  0    1338537.982  -6078280.962   2944742.002
10 0 59896  82782.000000  0    1066488.534  -5684912.071   3732866.156
10 0 59896  82902.000000  0     783591.929  -5187311.392   4455271.915
10 0 59896  83022.000000  0     496546.999  -4594072.050   5099264.077
10 0 59896  83142.000000  0     211956.313  -3915575.721   5653540.899
10 0 59896  83262.000000  0     -63819.715  -3163800.493   6108389.860
10 0 59896  83382.000000  0    -324799.946  -2352100.221   6455851.811
10 0 59896  83502.000000  0    -565508.282  -1494962.497   6689852.837
10 0 59896  83622.000000  0    -781085.346   -607748.078   6806305.178
10 0 59896  83742.000000  0    -967384.663    293585.816   6803175.322
10 0 59896  83862.000000  0   -1121051.729   1192772.795   6680517.249
10 0 59896  83982.000000  0   -1239583.935   2073530.247   6440471.252
10 0 59896  84102.000000  0   -1321371.236   2919853.594   6087229.063
10 0 59896  84222.000000  0   -1365717.338   3716307.899   5626965.131
10 0 59896  84342.000000  0   -1372840.109   4448311.870   5067734.336
10 0 59896  84462.000000  0   -1343851.770   5102410.316   4419337.812
10 0 59896  84582.000000  0   -1280719.269   5666529.539   3693155.508
10 0 59896  84702.000000  0   -1186204.947   6130208.301   2901949.571
10 0 59896  84822.000000  0   -1063791.292   6484802.862   2059641.274
10 0 59896  84942.000000  0    -917586.426   6723658.118   1181061.745
10 0 59896  85062.000000  0    -752215.266   6842239.006    281685.081
10 0 59896  85182.000000  0    -572699.157   6838221.491   -622651.204
10 0 59896  85302.000000  0    -384326.576   6711539.619  -1516035.198
10 0 59896  85422.000000  0    -192518.834   6464383.777  -2382770.788
10 0 59896  85542.000000  0      -2694.955   6101153.370  -3207659.144
10 0 59896  85662.000000  0     179861.434   5628368.191  -3976268.076
10 0 59896  85782.000000  0     350130.837   5054539.582  -4675184.756
10 0 59896  85902.000000  0     503478.698   4390004.782  -5292246.350
10 0 59896  86022.000000  0     635765.562   3646729.560  -5816744.854
10 0 59896  86142.000000  0     743443.627   2838083.457  -6239603.638
10 0 59896  86262.000000  0     823638.260   1978593.264  -6553523.142
10 0 59896  86382.000000  0     874213.521   1083680.862  -6753095.143
10 0 59897    102.000000  0     893820.043    169388.859  -6834886.768
10 0 59897    222.000000  0     881925.377   -747902.354  -6797493.242
10 0 59897    342.000000  0     838825.592  -1651761.826  -6641557.938
10 0 59897    462.000000  0     765638.861  -2525993.626  -6369761.447
10 0 59897    582.000000  0     664281.270  -3354920.047  -5986782.847
10 0 59897    702.000000  0     537423.581  -4123661.042  -5499228.231
10 0 59897    822.000000  0     388431.310  -4818400.941  -4915526.305
10 0 59897    942.000000  0     221288.322  -5426640.309  -4245794.569
10 0 59897   1062.000000  0      40504.560  -5937428.941  -3501674.635
10 0 59897   1182.000000  0    -148989.897  -6341573.394  -2696137.799
10 0 59897   1302.000000  0    -341962.437  -6631814.954  -1843264.754
10 0 59897   1422.000000  0    -533004.722  -6802973.738   -958000.466
10 0 59897   1542.000000  0    -716665.594  -6852052.490    -55889.115
10 0 59897   1662.000000  0    -887586.809  -6778297.523    847204.481
10 0 59897   1782.000000  0   -1040638.452  -6583215.777   1735381.323
10 0 59897   1902.000000  0   -1171050.335  -6270546.213   2592997.554
10 0 59897   2022.000000  0   -1274535.607  -5846185.575   3404949.161
10 0 59897   2142.000000  0   -1347402.745  -5318070.352   4156945.624
10 0 59897   2262.000000  0   -1386654.076  -4696018.515   4835764.476
10 0 59897   2382.000000  0   -1390068.618  -3991538.360   5429484.388
10 0 59897   2502.000000  0   -1356267.515  -3217606.095   5927694.286
10 0 59897   2622.000000  0   -1284759.638  -2388416.565   6321671.307
10 0 59897   2742.000000  0   -1175966.524  -1519117.102   6604526.077
10 0 59897   2862.000000  0   -1031228.006   -625528.217   6771317.598
10 0 59897   2982.000000  0    -852788.497    276146.273   6819134.392
10 0 59897   3102.000000  0    -643762.792   1169612.580   6747142.128
10 0 59897   3222.000000  0    -408081.358   2038781.006   6556597.655
10 0 59897   3342.000000  0    -150416.635   2868055.349   6250828.266
10 0 59897   3462.000000  0     123908.173   3642612.926   5835177.187
10 0 59897   3582.000000  0     409026.005   4348672.202   5316915.573
10 0 59897   3702.000000  0     698647.851   4973742.512   4705121.470
10 0 59897   3822.000000  0     986197.488   5506852.733   4010526.052
10 0 59897   3942.000000  0    1264953.922   5938750.820   3245329.137
10 0 59897   4062.000000  0    1528203.631   6262076.774   2422990.199
10 0 59897   4182.000000  0    1769395.660   6471498.506   1557985.871
10 0 59897   4302.000000  0    1982294.443   6563805.935    665550.074
10 0 59897   4422.000000  0    2161129.199   6537962.441   -238602.139
10 0 59897   4542.000000  0    2300734.083   6395112.817  -1138559.093
10 0 59897   4662.000000  0    2396676.664   6138548.140  -2018500.365
10 0 59897   4782.000000  0    2445371.664   5773628.264  -2862982.009
10 0 59897   4902.000000  0    2444176.772   5307663.646  -3657213.440
10 0 59897   5022.000000  0    2391468.057   4749758.756  -4387319.257
10 0 59897   5142.000000  0    2286692.897   4110623.071  -5040579.571
10 0 59897   5262.000000  0    2130400.405   3402355.598  -5605645.420
10 0 59897   5382.000000  0    1924249.366   2638208.486  -6072727.364
10 0 59897   5502.000000  0    1670993.145   1832333.692  -6433754.525
10 0 59897   5622.000000  0    1374443.188    999519.670  -6682501.844
10 0 59897   5742.000000  0    1039412.042    154922.356  -6814687.616
10 0 59897   5862.000000  0     671634.977   -686206.385  -6828039.576
10 0 59897   5982.000000  0     277672.821  -1508788.429  -6722328.275
10 0 59897   6102.000000  0    -135201.819  -2298181.678  -6499369.608
10 0 59897   6222.000000  0    -559134.815  -3040434.311  -6162998.954
10 0 59897   6342.000000  0    -985836.023  -3722528.932  -5719012.211
99
